STARLINK-2132
1 17729C 21017H   21326.12657477  .00001299  00000-0  87018-4 0  3266
2 17729  53.0552 348.1601 0001714  47.5745 231.6994 15.06392499    12
